ONEWEB-0683             
1 56719U 23068K   26153.68058463  .00000206  00000+0  51323-3 0  9998
2 56719  87.9009 262.0822 0002079 107.0445 253.0913 13.15548650147513
ONEWEB-0684             
1 56720U 23068L   26153.30820977  .00000172  00000+0  42366-3 0  9995
2 56720  87.9007 262.1467 0000633 118.1423 241.9771 13.15547672147298
ONEWEB-0686             
1 56721U 23068M   26153.68867881  .00000029  00000+0  42862-4 0  9995
2 56721  87.9097 231.6729 0001995 109.1901 250.9446 13.16594080149807
ONEWEB-0694             
1 56722U 23068N   26153.69501073 -.00000060  00000+0 -19107-3 0  9997
2 56722  87.9116 231.6327 0002384 103.7189 256.4207 13.16593862149864
ONEWEB-0696             
1 56723U 23068P   26153.72178772 -.00000038  00000+0 -13378-3 0  9997
2 56723  87.8998 262.1039 0001563  94.2047 265.9262 13.15549487147469
ONEWEB-0703             
1 56724U 23068Q   26153.73128395  .00000023  00000+0  27608-4 0  9999
2 56724  87.8999 262.0830 0001595  73.7498 286.3808 13.15547401147351
ONEWEB-0721             
1 56725U 23068R   26153.31069176  .00000126  00000+0  26845-3 0  9990
2 56725  86.6763  90.2635 0001965  79.1443 280.9911 13.22468611155978
ONEWEB-0015             
1 61594U 24188A   26153.66047660 -.00000429  00000+0 -12471-2 0  9993
2 61594  87.8895  23.9841 0002352  80.1711 279.9682 13.11416039 82551
ONEWEB-0687             
1 61595U 24188B   26153.65103314 -.00000004  00000+0 -43048-4 0  9997
2 61595  87.9138   8.7689 0002285  93.6520 266.4873 13.17650631 83981
ONEWEB-0688             
1 61596U 24188C   26153.14816121 -.00000207  00000+0 -56618-3 0  9990
2 61596  87.9140   8.8687 0003004  79.5929 280.5541 13.17649189 83918
ONEWEB-0689             
1 61597U 24188D   26153.16032402  .00000515  00000+0  14175-2 0  9996
2 61597  87.8914  24.0401 0001899  93.6435 266.4910 13.11418179 82481
ONEWEB-0690             
1 61598U 24188E   26153.17050086  .00000558  00000+0  15380-2 0  9992
2 61598  87.8908  24.0504 0001630  63.2977 296.8318 13.11417638 82664
ONEWEB-0691             
1 61599U 24188F   26153.16541326  .00000558  00000+0  15386-2 0  9990
2 61599  87.8919  23.9585 0002210  83.9470 276.1910 13.11416105 82517
ONEWEB-0692             
1 61600U 24188G   26153.64353089  .00000220  00000+0  58380-3 0  9991
2 61600  87.8895  23.9794 0001308 108.9666 251.1604 13.11415398 82568
ONEWEB-0693             
1 61601U 24188H   26153.08403863  .00000022  00000+0  23372-4 0  9990
2 61601  87.9132   8.9019 0001852  59.9787 300.1528 13.17651390 83897
ONEWEB-0695             
1 61602U 24188J   26153.16201396  .00000513  00000+0  14113-2 0  9993
2 61602  87.8903  24.0664 0001682 102.0237 258.1079 13.11417124 82496
