[{"OBJECT_NAME":"ONEWEB-0683","OBJECT_ID":"2023-068K","EPOCH":"2026-06-02T16:20:02.512032","MEAN_MOTION":13.1554865,"ECCENTRICITY":0.0002079,"INCLINATION":87.9009,"RA_OF_ASC_NODE":262.0822,"ARG_OF_PERICENTER":107.0445,"MEAN_ANOMALY":253.0913,"EPHEMERIS_TYPE":0,"CLASSIFICATION_TYPE":"U","NORAD_CAT_ID":56719,"ELEMENT_SET_NO":999,"REV_AT_EPOCH":14751,"BSTAR":0.0005132299999999999,"MEAN_MOTION_DOT":2.06e-06,"MEAN_MOTION_DDOT":0.0},{"OBJECT_NAME":"ONEWEB-0684","OBJECT_ID":"2023-068L","EPOCH":"2026-06-02T07:23:49.324128","MEAN_MOTION":13.15547672,"ECCENTRICITY":6.33e-05,"INCLINATION":87.9007,"RA_OF_ASC_NODE":262.1467,"ARG_OF_PERICENTER":118.1423,"MEAN_ANOMALY":241.9771,"EPHEMERIS_TYPE":0,"CLASSIFICATION_TYPE":"U","NORAD_CAT_ID":56720,"ELEMENT_SET_NO":999,"REV_AT_EPOCH":14729,"BSTAR":0.00042365999999999997,"MEAN_MOTION_DOT":1.72e-06,"MEAN_MOTION_DDOT":0.0},{"OBJECT_NAME":"ONEWEB-0686","OBJECT_ID":"2023-068M","EPOCH":"2026-06-02T16:31:41.849184","MEAN_MOTION":13.1659408,"ECCENTRICITY":0.0001995,"INCLINATION":87.9097,"RA_OF_ASC_NODE":231.6729,"ARG_OF_PERICENTER":109.1901,"MEAN_ANOMALY":250.9446,"EPHEMERIS_TYPE":0,"CLASSIFICATION_TYPE":"U","NORAD_CAT_ID":56721,"ELEMENT_SET_NO":999,"REV_AT_EPOCH":14980,"BSTAR":4.2862000000000004e-05,"MEAN_MOTION_DOT":2.9e-07,"MEAN_MOTION_DDOT":0.0},{"OBJECT_NAME":"ONEWEB-0694","OBJECT_ID":"2023-068N","EPOCH":"2026-06-02T16:40:48.927072","MEAN_MOTION":13.16593862,"ECCENTRICITY":0.0002384,"INCLINATION":87.9116,"RA_OF_ASC_NODE":231.6327,"ARG_OF_PERICENTER":103.7189,"MEAN_ANOMALY":256.4207,"EPHEMERIS_TYPE":0,"CLASSIFICATION_TYPE":"U","NORAD_CAT_ID":56722,"ELEMENT_SET_NO":999,"REV_AT_EPOCH":14986,"BSTAR":-0.00019107,"MEAN_MOTION_DOT":-6e-07,"MEAN_MOTION_DDOT":0.0},{"OBJECT_NAME":"ONEWEB-0696","OBJECT_ID":"2023-068P","EPOCH":"2026-06-02T17:19:22.459008","MEAN_MOTION":13.15549487,"ECCENTRICITY":0.0001563,"INCLINATION":87.8998,"RA_OF_ASC_NODE":262.1039,"ARG_OF_PERICENTER":94.2047,"MEAN_ANOMALY":265.9262,"EPHEMERIS_TYPE":0,"CLASSIFICATION_TYPE":"U","NORAD_CAT_ID":56723,"ELEMENT_SET_NO":999,"REV_AT_EPOCH":14746,"BSTAR":-0.00013378,"MEAN_MOTION_DOT":-3.8e-07,"MEAN_MOTION_DDOT":0.0},{"OBJECT_NAME":"ONEWEB-0703","OBJECT_ID":"2023-068Q","EPOCH":"2026-06-02T17:33:02.933280","MEAN_MOTION":13.15547401,"ECCENTRICITY":0.0001595,"INCLINATION":87.8999,"RA_OF_ASC_NODE":262.083,"ARG_OF_PERICENTER":73.7498,"MEAN_ANOMALY":286.3808,"EPHEMERIS_TYPE":0,"CLASSIFICATION_TYPE":"U","NORAD_CAT_ID":56724,"ELEMENT_SET_NO":999,"REV_AT_EPOCH":14735,"BSTAR":2.7608e-05,"MEAN_MOTION_DOT":2.3e-07,"MEAN_MOTION_DDOT":0.0},{"OBJECT_NAME":"ONEWEB-0721","OBJECT_ID":"2023-068R","EPOCH":"2026-06-02T07:27:23.768064","MEAN_MOTION":13.22468611,"ECCENTRICITY":0.0001965,"INCLINATION":86.6763,"RA_OF_ASC_NODE":90.2635,"ARG_OF_PERICENTER":79.1443,"MEAN_ANOMALY":280.9911,"EPHEMERIS_TYPE":0,"CLASSIFICATION_TYPE":"U","NORAD_CAT_ID":56725,"ELEMENT_SET_NO":999,"REV_AT_EPOCH":15597,"BSTAR":0.00026845000000000005,"MEAN_MOTION_DOT":1.26e-06,"MEAN_MOTION_DDOT":0.0},{"OBJECT_NAME":"ONEWEB-0015","OBJECT_ID":"2024-188A","EPOCH":"2026-06-02T15:51:05.178240","MEAN_MOTION":13.11416039,"ECCENTRICITY":0.0002352,"INCLINATION":87.8895,"RA_OF_ASC_NODE":23.9841,"ARG_OF_PERICENTER":80.1711,"MEAN_ANOMALY":279.9682,"EPHEMERIS_TYPE":0,"CLASSIFICATION_TYPE":"U","NORAD_CAT_ID":61594,"ELEMENT_SET_NO":999,"REV_AT_EPOCH":8255,"BSTAR":-0.0012471000000000001,"MEAN_MOTION_DOT":-4.29e-06,"MEAN_MOTION_DDOT":0.0},{"OBJECT_NAME":"ONEWEB-0687","OBJECT_ID":"2024-188B","EPOCH":"2026-06-02T15:37:29.263296","MEAN_MOTION":13.17650631,"ECCENTRICITY":0.0002285,"INCLINATION":87.9138,"RA_OF_ASC_NODE":8.7689,"ARG_OF_PERICENTER":93.652,"MEAN_ANOMALY":266.4873,"EPHEMERIS_TYPE":0,"CLASSIFICATION_TYPE":"U","NORAD_CAT_ID":61595,"ELEMENT_SET_NO":999,"REV_AT_EPOCH":8398,"BSTAR":-4.3048e-05,"MEAN_MOTION_DOT":-4e-08,"MEAN_MOTION_DDOT":0.0},{"OBJECT_NAME":"ONEWEB-0688","OBJECT_ID":"2024-188C","EPOCH":"2026-06-02T03:33:21.128544","MEAN_MOTION":13.17649189,"ECCENTRICITY":0.0003004,"INCLINATION":87.914,"RA_OF_ASC_NODE":8.8687,"ARG_OF_PERICENTER":79.5929,"MEAN_ANOMALY":280.5541,"EPHEMERIS_TYPE":0,"CLASSIFICATION_TYPE":"U","NORAD_CAT_ID":61596,"ELEMENT_SET_NO":999,"REV_AT_EPOCH":8391,"BSTAR":-0.00056618,"MEAN_MOTION_DOT":-2.07e-06,"MEAN_MOTION_DDOT":0.0},{"OBJECT_NAME":"ONEWEB-0689","OBJECT_ID":"2024-188D","EPOCH":"2026-06-02T03:50:51.995328","MEAN_MOTION":13.11418179,"ECCENTRICITY":0.0001899,"INCLINATION":87.8914,"RA_OF_ASC_NODE":24.0401,"ARG_OF_PERICENTER":93.6435,"MEAN_ANOMALY":266.491,"EPHEMERIS_TYPE":0,"CLASSIFICATION_TYPE":"U","NORAD_CAT_ID":61597,"ELEMENT_SET_NO":999,"REV_AT_EPOCH":8248,"BSTAR":0.0014175,"MEAN_MOTION_DOT":5.15e-06,"MEAN_MOTION_DDOT":0.0},{"OBJECT_NAME":"ONEWEB-0690","OBJECT_ID":"2024-188E","EPOCH":"2026-06-02T04:05:31.274304","MEAN_MOTION":13.11417638,"ECCENTRICITY":0.000163,"INCLINATION":87.8908,"RA_OF_ASC_NODE":24.0504,"ARG_OF_PERICENTER":63.2977,"MEAN_ANOMALY":296.8318,"EPHEMERIS_TYPE":0,"CLASSIFICATION_TYPE":"U","NORAD_CAT_ID":61598,"ELEMENT_SET_NO":999,"REV_AT_EPOCH":8266,"BSTAR":0.0015379999999999999,"MEAN_MOTION_DOT":5.58e-06,"MEAN_MOTION_DDOT":0.0},{"OBJECT_NAME":"ONEWEB-0691","OBJECT_ID":"2024-188F","EPOCH":"2026-06-02T03:58:11.705664","MEAN_MOTION":13.11416105,"ECCENTRICITY":0.000221,"INCLINATION":87.8919,"RA_OF_ASC_NODE":23.9585,"ARG_OF_PERICENTER":83.947,"MEAN_ANOMALY":276.191,"EPHEMERIS_TYPE":0,"CLASSIFICATION_TYPE":"U","NORAD_CAT_ID":61599,"ELEMENT_SET_NO":999,"REV_AT_EPOCH":8251,"BSTAR":0.0015386,"MEAN_MOTION_DOT":5.58e-06,"MEAN_MOTION_DDOT":0.0},{"OBJECT_NAME":"ONEWEB-0692","OBJECT_ID":"2024-188G","EPOCH":"2026-06-02T15:26:41.068896","MEAN_MOTION":13.11415398,"ECCENTRICITY":0.0001308,"INCLINATION":87.8895,"RA_OF_ASC_NODE":23.9794,"ARG_OF_PERICENTER":108.9666,"MEAN_ANOMALY":251.1604,"EPHEMERIS_TYPE":0,"CLASSIFICATION_TYPE":"U","NORAD_CAT_ID":61600,"ELEMENT_SET_NO":999,"REV_AT_EPOCH":8256,"BSTAR":0.0005838,"MEAN_MOTION_DOT":2.2e-06,"MEAN_MOTION_DDOT":0.0},{"OBJECT_NAME":"ONEWEB-0693","OBJECT_ID":"2024-188H","EPOCH":"2026-06-02T02:01:00.937632","MEAN_MOTION":13.1765139,"ECCENTRICITY":0.0001852,"INCLINATION":87.9132,"RA_OF_ASC_NODE":8.9019,"ARG_OF_PERICENTER":59.9787,"MEAN_ANOMALY":300.1528,"EPHEMERIS_TYPE":0,"CLASSIFICATION_TYPE":"U","NORAD_CAT_ID":61601,"ELEMENT_SET_NO":999,"REV_AT_EPOCH":8389,"BSTAR":2.3372000000000003e-05,"MEAN_MOTION_DOT":2.2e-07,"MEAN_MOTION_DDOT":0.0},{"OBJECT_NAME":"ONEWEB-0695","OBJECT_ID":"2024-188J","EPOCH":"2026-06-02T03:53:18.006144","MEAN_MOTION":13.11417124,"ECCENTRICITY":0.0001682,"INCLINATION":87.8903,"RA_OF_ASC_NODE":24.0664,"ARG_OF_PERICENTER":102.0237,"MEAN_ANOMALY":258.1079,"EPHEMERIS_TYPE":0,"CLASSIFICATION_TYPE":"U","NORAD_CAT_ID":61602,"ELEMENT_SET_NO":999,"REV_AT_EPOCH":8249,"BSTAR":0.0014113,"MEAN_MOTION_DOT":5.13e-06,"MEAN_MOTION_DDOT":0.0}]